{
  "type": "FeatureCollection",
  "features": [
    {
      "type": "Feature",
      "properties": {
        "norad_id": 38709,
        "name": "EXACTVIEW-1 (ADS-1B)",
        "group": "resource",
        "lat": -46.14720129111031,
        "lon": 101.99897111200724,
        "alt_km": 810.3551178105181,
        "timestamp": "2025-12-10T04:57:29.262496+00:00",
        "meta_object_name": "EXACTVIEW-1 (ADS-1B)",
        "meta_object_id": "2012-039C",
        "meta_epoch": "2025-12-09T19:03:56.772576",
        "meta_mean_motion": 14.24906377,
        "meta_eccentricity": 0.0010824,
        "meta_inclination": 98.9635,
        "meta_ra_of_asc_node": 92.1227,
        "meta_arg_of_pericenter": 2.7856,
        "meta_mean_anomaly": 357.3381,
        "meta_ephemeris_type": 0,
        "meta_classification_type": "U",
        "meta_norad_cat_id": 38709,
        "meta_element_set_no": 999,
        "meta_rev_at_epoch": 69573,
        "meta_bstar": 0.00015728,
        "meta_mean_motion_dot": 3.21e-06,
        "meta_mean_motion_ddot": 0,
        "tle_line1": "1 38709U 12039C   25343.79440709  .00000321  00000+0  15728-3 0  9990",
        "tle_line2": "2 38709  98.9635  92.1227 0010824   2.7856 357.3381 14.24906377695738"
      },
      "geometry": {
        "type": "Point",
        "coordinates": [
          101.99897111200724,
          -46.14720129111031
        ]
      }
    },
    {
      "type": "Feature",
      "properties": {
        "norad_id": 38755,
        "name": "SPOT 6",
        "group": "resource",
        "lat": 34.43109056407937,
        "lon": 43.39455779802183,
        "alt_km": 695.0808523629803,
        "timestamp": "2025-12-10T04:57:29.262506+00:00",
        "meta_object_name": "SPOT 6",
        "meta_object_id": "2012-047A",
        "meta_epoch": "2025-12-09T20:34:01.186752",
        "meta_mean_motion": 14.58598464,
        "meta_eccentricity": 0.0001075,
        "meta_inclination": 98.1571,
        "meta_ra_of_asc_node": 48.6941,
        "meta_arg_of_pericenter": 95.8461,
        "meta_mean_anomaly": 264.2861,
        "meta_ephemeris_type": 0,
        "meta_classification_type": "U",
        "meta_norad_cat_id": 38755,
        "meta_element_set_no": 999,
        "meta_rev_at_epoch": 70545,
        "meta_bstar": 0.00011492,
        "meta_mean_motion_dot": 4.89e-06,
        "meta_mean_motion_ddot": 0,
        "tle_line1": "1 38755U 12047A   25343.85695818  .00000489  00000+0  11492-3 0  9999",
        "tle_line2": "2 38755  98.1571  48.6941 0001075  95.8461 264.2861 14.58598464705453"
      },
      "geometry": {
        "type": "Point",
        "coordinates": [
          43.39455779802183,
          34.43109056407937
        ]
      }
    },
    {
      "type": "Feature",
      "properties": {
        "norad_id": 39019,
        "name": "PLEIADES 1B",
        "group": "resource",
        "lat": -64.82437367491876,
        "lon": 74.71559864116492,
        "alt_km": 705.7886225262337,
        "timestamp": "2025-12-10T04:57:29.262517+00:00",
        "meta_object_name": "PLEIADES 1B",
        "meta_object_id": "2012-068A",
        "meta_epoch": "2025-12-09T19:22:55.649856",
        "meta_mean_motion": 14.58548194,
        "meta_eccentricity": 0.000122,
        "meta_inclination": 98.1793,
        "meta_ra_of_asc_node": 56.5053,
        "meta_arg_of_pericenter": 80.7313,
        "meta_mean_anomaly": 279.4025,
        "meta_ephemeris_type": 0,
        "meta_classification_type": "U",
        "meta_norad_cat_id": 39019,
        "meta_element_set_no": 999,
        "meta_rev_at_epoch": 69324,
        "meta_bstar": 0.00013448,
        "meta_mean_motion_dot": 5.8e-06,
        "meta_mean_motion_ddot": 0,
        "tle_line1": "1 39019U 12068A   25343.80758854  .00000580  00000+0  13448-3 0  9996",
        "tle_line2": "2 39019  98.1793  56.5053 0001220  80.7313 279.4025 14.58548194693244"
      },
      "geometry": {
        "type": "Point",
        "coordinates": [
          74.71559864116492,
          -64.82437367491876
        ]
      }
    },
    {
      "type": "Feature",
      "properties": {
        "norad_id": 39030,
        "name": "GOKTURK 2",
        "group": "resource",
        "lat": -3.1193512405519237,
        "lon": -173.59371474330194,
        "alt_km": 647.8116122570173,
        "timestamp": "2025-12-10T04:57:29.262527+00:00",
        "meta_object_name": "GOKTURK 2",
        "meta_object_id": "2012-073A",
        "meta_epoch": "2025-12-09T20:50:00.184416",
        "meta_mean_motion": 14.75286083,
        "meta_eccentricity": 9.56e-05,
        "meta_inclination": 97.689,
        "meta_ra_of_asc_node": 185.6627,
        "meta_arg_of_pericenter": 101.1777,
        "meta_mean_anomaly": 258.9541,
        "meta_ephemeris_type": 0,
        "meta_classification_type": "U",
        "meta_norad_cat_id": 39030,
        "meta_element_set_no": 999,
        "meta_rev_at_epoch": 69659,
        "meta_bstar": 0.00021127,
        "meta_mean_motion_dot": 1.383e-05,
        "meta_mean_motion_ddot": 0,
        "tle_line1": "1 39030U 12073A   25343.86805769  .00001383  00000+0  21127-3 0  9994",
        "tle_line2": "2 39030  97.6890 185.6627 0000956 101.1777 258.9541 14.75286083696598"
      },
      "geometry": {
        "type": "Point",
        "coordinates": [
          -173.59371474330194,
          -3.1193512405519237
        ]
      }
    },
    {
      "type": "Feature",
      "properties": {
        "norad_id": 39084,
        "name": "LANDSAT 8",
        "group": "resource",
        "lat": 61.73395817925819,
        "lon": -112.11158696870359,
        "alt_km": 695.821139256579,
        "timestamp": "2025-12-10T04:57:29.262538+00:00",
        "meta_object_name": "LANDSAT 8",
        "meta_object_id": "2013-008A",
        "meta_epoch": "2025-12-09T18:32:03.482592",
        "meta_mean_motion": 14.5710996,
        "meta_eccentricity": 0.0001121,
        "meta_inclination": 98.2075,
        "meta_ra_of_asc_node": 51.8895,
        "meta_arg_of_pericenter": 87.4567,
        "meta_mean_anomaly": 272.676,
        "meta_ephemeris_type": 0,
        "meta_classification_type": "U",
        "meta_norad_cat_id": 39084,
        "meta_element_set_no": 999,
        "meta_rev_at_epoch": 67031,
        "meta_bstar": 0.00018159,
        "meta_mean_motion_dot": 7.73e-06,
        "meta_mean_motion_ddot": 0,
        "tle_line1": "1 39084U 13008A   25343.77226253  .00000773  00000+0  18159-3 0  9990",
        "tle_line2": "2 39084  98.2075  51.8895 0001121  87.4567 272.6760 14.57109960670314"
      },
      "geometry": {
        "type": "Point",
        "coordinates": [
          -112.11158696870359,
          61.73395817925819
        ]
      }
    },
    {
      "type": "Feature",
      "properties": {
        "norad_id": 39086,
        "name": "SARAL",
        "group": "resource",
        "lat": -35.1548369015461,
        "lon": 174.25192903580265,
        "alt_km": 790.4784936487185,
        "timestamp": "2025-12-10T04:57:29.262548+00:00",
        "meta_object_name": "SARAL",
        "meta_object_id": "2013-009A",
        "meta_epoch": "2025-12-09T19:04:03.833184",
        "meta_mean_motion": 14.32755625,
        "meta_eccentricity": 0.000281,
        "meta_inclination": 98.5504,
        "meta_ra_of_asc_node": 167.7634,
        "meta_arg_of_pericenter": 114.2517,
        "meta_mean_anomaly": 245.8961,
        "meta_ephemeris_type": 0,
        "meta_classification_type": "U",
        "meta_norad_cat_id": 39086,
        "meta_element_set_no": 999,
        "meta_rev_at_epoch": 66848,
        "meta_bstar": 0.00010554,
        "meta_mean_motion_dot": 2.44e-06,
        "meta_mean_motion_ddot": 0,
        "tle_line1": "1 39086U 13009A   25343.79448881  .00000244  00000+0  10554-3 0  9992",
        "tle_line2": "2 39086  98.5504 167.7634 0002810 114.2517 245.8961 14.32755625668482"
      },
      "geometry": {
        "type": "Point",
        "coordinates": [
          174.25192903580265,
          -35.1548369015461
        ]
      }
    },
    {
      "type": "Feature",
      "properties": {
        "norad_id": 39150,
        "name": "GAOFEN-1",
        "group": "resource",
        "lat": 62.313102522163,
        "lon": 39.499794079724964,
        "alt_km": 633.618193352162,
        "timestamp": "2025-12-10T04:57:29.262559+00:00",
        "meta_object_name": "GAOFEN-1",
        "meta_object_id": "2013-018A",
        "meta_epoch": "2025-12-09T20:32:22.092000",
        "meta_mean_motion": 14.76526134,
        "meta_eccentricity": 0.0017981,
        "meta_inclination": 97.9326,
        "meta_ra_of_asc_node": 54.5657,
        "meta_arg_of_pericenter": 151.8334,
        "meta_mean_anomaly": 208.3853,
        "meta_ephemeris_type": 0,
        "meta_classification_type": "U",
        "meta_norad_cat_id": 39150,
        "meta_element_set_no": 999,
        "meta_rev_at_epoch": 68030,
        "meta_bstar": 0.00017278,
        "meta_mean_motion_dot": 1.156e-05,
        "meta_mean_motion_ddot": 0,
        "tle_line1": "1 39150U 13018A   25343.85581125  .00001156  00000+0  17278-3 0  9993",
        "tle_line2": "2 39150  97.9326  54.5657 0017981 151.8334 208.3853 14.76526134680304"
      },
      "geometry": {
        "type": "Point",
        "coordinates": [
          39.499794079724964,
          62.313102522163
        ]
      }
    }
  ]
}